# From MPC 75007
C/1995 O1 (Hale-Bopp),e,89.3044,282.6674,130.8810,184.6702,0.0003927,0.99491265,0.0000,03/29.2889/1997,2000,g -2.0,4.0
# From NK 1615
P/1996 R2 (Lagerkvist),e,2.6014,40.0572,333.2218,3.772819,0.1344947,0.31281491,254.8811,12/22.0/2016,2000,g 11.5,4.0
# From MPC 30063
P/1997 B1 (Kobayashi),e,12.3692,329.0071,183.3778,8.556256,0.0393802,0.76103369,284.3509,12/22.0/2016,2000,g 15.0,2.0
# From MPC 75703
P/1998 VS24 (LINEAR),e,5.0228,159.0570,245.0192,4.533780,0.1020971,0.24165442,319.8149,12/22.0/2016,2000,g 13.0,2.0
# From NK 1780
P/1999 D1 (Hermann),e,21.3524,348.7505,174.0913,5.757251,0.0713479,0.71395401,104.4726,12/22.0/2016,2000,g 15.0,4.0
# From CCO 17
P/1999 R1 (SOHO),e,12.5546,359.6239,48.9713,2.515690,0.2470122,0.97882125,0.0000,09/04.0198/2015,2000,g 27.0,6.0
# From NK 731
P/1999 RO28 (LONEOS),e,8.1154,147.5976,220.4781,3.487099,0.1513588,0.66265173,220.8792,12/22.0/2016,2000,g 20.0,2.0
# From MPC 75704
P/1999 XN120 (Catalina),e,5.0281,285.2978,162.0244,4.183497,0.1151847,0.21184546,340.1328,12/22.0/2016,2000,g 13.5,2.0
# From NK 744
P/2000 R2 (LINEAR),e,11.7847,160.6524,176.5089,3.453885,0.1535474,0.53644636,221.0761,12/22.0/2016,2000,g 18.0,4.0
# From MPC 75704
P/2000 S1 (Skiff),e,21.0180,28.1588,309.0939,6.624219,0.0578099,0.61715855,349.3438,12/22.0/2016,2000,g 10.0,4.0
# From MPC 73461
P/2000 S4 (LINEAR-Spacewatch),e,28.4561,174.1015,172.5146,7.132946,0.0517369,0.68030521,307.7586,12/22.0/2016,2000,g 17.5,2.0
# From MPC 75704
P/2001 BB50 (LINEAR-NEAT),e,10.3669,351.1810,193.5718,5.732321,0.0718139,0.58749469,60.3314,12/22.0/2016,2000,g 13.0,4.0
# From MPC 43019
P/2001 H5 (NEAT),e,8.3813,328.6920,224.7517,6.091460,0.0655574,0.60007889,28.0070,12/22.0/2016,2000,g 12.0,4.0
# From MPC 75704
P/2001 Q6 (NEAT),e,56.8525,21.9988,43.1478,7.928389,0.0441496,0.82310270,244.0030,12/22.0/2016,2000,g 13.5,4.0
# From MPC 82311
P/2001 R6 (LINEAR-Skiff),e,17.3791,67.3357,308.4720,4.178759,0.1153807,0.47547368,284.8457,12/22.0/2016,2000,g 13.0,4.0
# From MPC 75704
P/2001 T3 (NEAT),e,19.3974,55.1719,356.8248,6.441708,0.0602841,0.61432832,327.7005,12/22.0/2016,2000,g 12.0,4.0
# From MPC 47727
P/2002 EJ57 (LINEAR),e,4.9766,330.4531,166.9630,6.470757,0.0598786,0.59393730,327.4636,12/22.0/2016,2000,g 12.5,4.0
# From MPC 82311
P/2002 T5 (LINEAR),e,30.8856,123.1213,327.0456,6.983002,0.0534122,0.43759626,262.7392,12/22.0/2016,2000,g  8.0,4.0
# From MPC 75704
P/2002 T6 (NEAT-LINEAR),e,10.9807,208.6247,217.8840,7.637204,0.0466985,0.55868623,230.1671,12/22.0/2016,2000,g 10.5,4.0
# From MPC 75007
C/2002 VQ94 (LINEAR),e,70.4416,34.8959,100.1229,193.5412,0.0003661,0.96484465,1.4540,12/22.0/2016,2000,g  9.5,2.0
# From MPC 50354
P/2003 F2 (NEAT),e,11.6043,359.1285,191.6314,6.501106,0.0594598,0.54262183,297.3094,12/22.0/2016,2000,g 16.5,2.0
# From MPC 75704
P/2003 L1 (Scotti),e,9.0202,226.0568,354.5426,6.725473,0.0565093,0.25286658,286.9011,12/22.0/2016,2000,g  8.5,4.0
# From MPC 50139
P/2003 QX29 (NEAT),e,11.3834,264.5429,37.1721,8.055033,0.0431125,0.47042090,224.0457,12/22.0/2016,2000,g  8.5,4.0
# From MPC 99268
P/2003 T12 (SOHO),e,11.4571,176.4006,217.7673,2.572302,0.2389027,0.77554545,68.6716,12/22.0/2016,2000,g 17.0,4.0
# From MPC 75705
P/2003 U3 (NEAT),e,7.0041,348.0182,356.9245,5.060417,0.0865814,0.50858322,69.1735,12/22.0/2016,2000,g 13.5,4.0
# From MPC 82312
P/2004 A1 (LONEOS),e,10.5655,124.9268,21.6957,7.931582,0.0441229,0.31220565,197.7272,12/22.0/2016,2000,g  6.5,4.0
# From MPC 54558
P/2004 DO29 (Spacewatch-LINEAR),e,14.5388,147.5138,40.6003,7.281268,0.0501642,0.44277159,223.6961,12/22.0/2016,2000,g 13.5,2.0
# From MPC 54823
P/2004 FY140 (LINEAR),e,2.1369,326.7729,242.1113,4.892815,0.0910680,0.17020131,46.9158,12/22.0/2016,2000,g 12.5,2.0
# From MPC 53304
P/2004 R3 (LINEAR-NEAT),e,12.8445,306.4450,41.2636,4.715662,0.0962476,0.26474528,190.9917,12/22.0/2016,2000,g 14.5,4.0
# From CCO 17
P/2004 T1 (LINEAR-NEAT),e,11.0330,51.4621,336.3605,3.475868,0.1520930,0.50636983,315.0878,12/22.0/2016,2000,g 12.5,4.0
# From MPC 55521
P/2004 V3 (Siding Spring),e,50.3632,356.0990,322.2952,7.147162,0.0515826,0.44470823,229.4400,12/22.0/2016,2000,g 11.5,4.0
# From MPC 75705
P/2004 V5 (LINEAR-Hill),e,19.3530,47.7302,88.0714,7.953326,0.0439421,0.44626175,189.2005,12/22.0/2016,2000,g  8.0,4.0
# From MPC 75705
P/2004 WR9 (LINEAR),e,4.9312,24.8729,72.1405,6.137507,0.0648210,0.68302913,282.4454,12/22.0/2016,2000,g 14.5,4.0
# From MPC 54164
P/2005 E1 (Tubbiolo),e,4.2692,335.7018,194.1026,7.031857,0.0528566,0.37678535,229.4670,12/22.0/2016,2000,g 10.0,4.0
# From MPC 54823
P/2005 GF8 (LONEOS),e,1.1912,314.9158,285.3048,5.856884,0.0695351,0.51600779,289.5716,12/22.0/2016,2000,g 11.5,4.0
# From MPC 75290
P/2005 JN (Spacewatch),e,8.8567,70.7683,153.4200,3.497449,0.1506874,0.34872323,272.8978,12/22.0/2016,2000,g 14.0,4.0
# From MPC 79019
P/2005 J1 (McNaught),e,31.7604,268.7927,338.9152,3.568838,0.1461887,0.57004028,263.5129,12/22.0/2016,2000,g 16.5,4.0
# From MPC 75705
P/2005 JD108 (Catalina-NEAT),e,3.2787,223.8658,90.4093,6.487647,0.0596449,0.37457891,250.0465,12/22.0/2016,2000,g 10.0,4.0
# From MPC 74246
P/2005 L1 (McNaught),e,7.7324,138.2529,149.4651,3.982113,0.1240320,0.20782188,139.4772,12/22.0/2016,2000,g  9.5,4.0
# From MPC 87062
C/2005 L3 (McNaught),e,139.4626,288.8089,47.0597,2421,0.0000083,0.99768942,0.0000,01/10.8285/2008,2000,g  4.0,4.0
# From MPC 75706
P/2005 R1 (NEAT),e,15.4845,257.9800,118.8073,5.520304,0.0759905,0.62536035,312.0152,12/22.0/2016,2000,g 14.0,4.0
# From MPC 75706
P/2005 S2 (Skiff),e,3.1365,161.2005,230.3889,8.017853,0.0434127,0.19577719,166.6797,12/22.0/2016,2000,g  7.5,4.0
# From MPC 75706
P/2005 SB216 (LONEOS),e,24.0528,1.3850,83.6037,7.111972,0.0519660,0.46349873,187.3291,12/22.0/2016,2000,g 12.0,2.0
# From MPC 55717
P/2005 T2 (Christensen),e,8.2929,260.2543,59.1955,3.837701,0.1310984,0.41784200,202.0983,12/22.0/2016,2000,g 14.5,4.0
# From MPC 73461
P/2005 T3 (Read),e,6.2462,27.9586,8.8762,7.559381,0.0474214,0.17085881,190.0571,12/22.0/2016,2000,g  9.0,4.0
# From MPC 73461
P/2005 T4 (SWAN),e,160.0671,25.3768,41.2959,9.355745,0.0344419,0.93147457,141.0305,12/22.0/2016,2000,g 15.0,4.0
# From MPC 75706
P/2005 T5 (Broughton),e,21.3374,57.0222,304.6236,7.291097,0.0500628,0.55002779,204.4521,12/22.0/2016,2000,g 11.0,4.0
# From MPC 56954
P/2005 W3 (Kowalski),e,16.4460,210.4210,200.1650,6.339246,0.0617515,0.54262742,252.9010,12/22.0/2016,2000,g 12.0,4.0
# From MPC 75706
P/2005 XA54 (LONEOS-Hill),e,17.1386,143.7658,15.1225,6.049845,0.0662350,0.71096366,260.7668,12/22.0/2016,2000,g 14.0,4.0
# From MPC 75706
P/2005 Y2 (McNaught),e,19.1108,94.5331,194.4063,6.330547,0.0618788,0.46602987,273.2300,12/22.0/2016,2000,g  9.0,4.0
# From MPC 75707
P/2006 D1 (Hill),e,17.3702,359.9710,119.4401,5.565688,0.0750630,0.65971830,305.2403,12/22.0/2016,2000,g 16.0,4.0
# From MPC 75707
P/2006 F1 (Kowalski),e,21.2817,124.7462,186.0802,4.668435,0.0977118,0.11992112,316.2836,12/22.0/2016,2000,g  8.0,4.0
# From MPC 56954
P/2006 F4 (Spacewatch),e,12.3881,184.0460,31.0189,3.528628,0.1486946,0.33780088,218.2126,12/22.0/2016,2000,g 15.0,4.0
# From MPC 58118
P/2006 H1 (McNaught),e,12.8773,0.0678,309.8097,5.733668,0.0717886,0.58075935,282.3034,12/22.0/2016,2000,g 12.5,4.0
# From MPC 75707
P/2006 HR30 (Siding Spring),e,31.9044,309.6512,117.5880,7.807592,0.0451781,0.84201175,164.6647,12/22.0/2016,2000,g 11.0,4.0
# From MPC 73914
C/2006 K4 (NEAT),e,111.3162,116.6580,233.6033,1024,0.0000301,0.99688060,0.0000,11/24.5626/2007,2000,g  6.0,4.0
# From MPC 82313
C/2006 OF2 (Broughton),h,09/11.6551/2008,30.0920,318.4178,95.9967,1.002128,2.458259,2000,5.5,4.0
# From MPC 72849
C/2006 Q1 (McNaught),e,59.1574,199.3095,344.4055,1991,0.0000111,0.99861405,0.0000,07/04.7125/2008,2000,g  5.0,4.0
# From MPC 73461
P/2006 R1 (Siding Spring),e,160.0722,218.8325,249.3544,5.631810,0.0737449,0.70530663,278.2421,12/22.0/2016,2000,g 16.0,4.0
# From MPC 69905
P/2006 S1 (Christensen),e,12.3266,207.9661,133.9454,3.529462,0.1486419,0.60349206,206.0249,12/22.0/2016,2000,g 17.5,4.0
# From MPC 98557
C/2006 S3 (LONEOS),e,166.0233,38.3465,140.0038,62110,0.0000001,0.99991732,0.0000,04/13.3560/2012,2000,g  2.0,4.0
# From MPC 75707
P/2006 S4 (Christensen),e,39.5800,36.1160,305.7293,6.268551,0.0627991,0.50613634,243.4275,12/22.0/2016,2000,g 11.0,4.0
# From MPC 60465
C/2006 S5 (Hill),e,10.1331,281.4173,182.3521,98.14200,0.0010137,0.97302855,0.0000,12/07.8880/2007,2000,g  8.0,4.0
# From MPC 66204
C/2006 U6 (Spacewatch),e,84.7116,179.9783,276.6364,2477,0.0000080,0.99898826,0.0000,06/02.7213/2008,2000,g  8.0,4.0
# From MPC 62580
C/2006 V1 (Catalina),e,31.4467,335.5718,252.9483,154.9439,0.0005110,0.98291994,0.0000,11/26.8124/2007,2000,g  8.0,4.0
# From MPC 75707
P/2006 W1 (Gibbs),e,18.5256,152.6961,231.7040,5.804772,0.0704736,0.70535578,277.0691,12/22.0/2016,2000,g 12.0,4.0
# From MPC 82313
C/2006 W3 (Christensen),e,127.0813,113.5475,133.2631,5980,0.0000021,0.99948069,0.0000,07/06.9642/2009,2000,g  5.0,4.0
# From MPC 75707
P/2007 A2 (Christensen),e,26.5290,300.9733,186.9118,6.308796,0.0621991,0.55861190,225.1997,12/22.0/2016,2000,g 13.5,4.0
# From MPC 59319
P/2007 B1 (Christensen),e,12.3790,77.7049,46.8930,5.807818,0.0704181,0.58154554,254.7260,12/22.0/2016,2000,g 13.5,4.0
# From MPC 66700
C/2007 B2 (Skiff),e,27.6058,14.6895,206.0939,605.1668,0.0000662,0.99510454,0.0000,08/23.4847/2008,2000,g  6.0,4.0
# From MPC 75707
P/2007 C2 (Catalina),e,8.7112,275.8236,179.5429,7.023019,0.0529564,0.46354783,179.7946,12/22.0/2016,2000,g 10.0,4.0
# From MPC 84315
C/2007 D1 (LINEAR),e,41.4871,170.9552,340.2659,2664,0.0000072,0.99669179,0.0000,06/17.5059/2007,2000,g  3.5,4.0
# From MPC 66464
C/2007 G1 (LINEAR),e,88.5126,79.0230,223.8774,3763,0.0000043,0.99929665,0.0000,11/13.2801/2008,2000,g  5.5,4.0
# From MPC 82314
P/2007 K2 (Gibbs),e,7.6607,188.6433,347.5119,7.250817,0.0504805,0.68579677,175.5968,12/22.0/2016,2000,g 14.0,4.0
# From MPC 82314
C/2007 K3 (Siding Spring),e,16.3612,263.2196,23.3209,1419,0.0000184,0.99856762,0.0000,04/20.5761/2008,2000,g  9.5,4.0
# From MPC 87475
